[{"OBJECT_NAME":"STARLINK-3729","OBJECT_ID":"2022-029AZ","EPOCH":"2026-03-09T07:50:08.782656","MEAN_MOTION":15.08849359,"ECCENTRICITY":0.00013171,"INCLINATION":53.218,"RA_OF_ASC_NODE":70.7619,"ARG_OF_PERICENTER":88.7884,"MEAN_ANOMALY":271.3259,"EPHEMERIS_TYPE":0,"CLASSIFICATION_TYPE":"U","NORAD_CAT_ID":52135,"ELEMENT_SET_NO":999,"REV_AT_EPOCH":22088,"BSTAR":8.5727187e-5,"MEAN_MOTION_DOT":1.077e-5,"MEAN_MOTION_DDOT":0},{"OBJECT_NAME":"TITAN 3C TRANSTAGE DEB","OBJECT_ID":"1965-082PP","EPOCH":"2026-03-08T23:49:16.681152","MEAN_MOTION":15.10619215,"ECCENTRICITY":0.0014169,"INCLINATION":32.2612,"RA_OF_ASC_NODE":312.9247,"ARG_OF_PERICENTER":37.7873,"MEAN_ANOMALY":322.3781,"EPHEMERIS_TYPE":0,"CLASSIFICATION_TYPE":"U","NORAD_CAT_ID":3454,"ELEMENT_SET_NO":999,"REV_AT_EPOCH":23071,"BSTAR":0.00075143557,"MEAN_MOTION_DOT":0.00012814,"MEAN_MOTION_DDOT":0}]
